[
    {
        "Altitude(m)": 604969.0892327967,
        "Argument of Periapsis(deg)": 0.0,
        "Eccentricity": 0.0,
        "Inclination(deg)": 60.0,
        "Latitude(deg)": -0.09274120426464295,
        "Longitude(deg)": -100.02247242577228,
        "Mean Anomaly(deg)": 0.0,
        "RAAN(deg)": 0.0,
        "Satellite Name": "Test1 0",
        "Satellite Number": 0,
        "Semi-Major Axis(m)": 6980739.136638005,
        "Time(s)": 0
    },
    {
        "Altitude(m)": 604900.0281663988,
        "Argument of Periapsis(deg)": 0.00010418945913296404,
        "Eccentricity": 0.0,
        "Inclination(deg)": 60.0,
        "Latitude(deg)": 0.4476846020307673,
        "Longitude(deg)": -99.75434922045278,
        "Mean Anomaly(deg)": 0.6201061454618302,
        "RAAN(deg)": -0.0004200491397426661,
        "Satellite Name": "Test1 0",
        "Satellite Number": 0,
        "Semi-Major Axis(m)": 6980739.136638005,
        "Time(s)": 10
    },
    {
        "Altitude(m)": 604834.1951667655,
        "Argument of Periapsis(deg)": 0.0002083789182659281,
        "Eccentricity": 0.0,
        "Inclination(deg)": 60.0,
        "Latitude(deg)": 0.988107184330876,
        "Longitude(deg)": -99.48617461109048,
        "Mean Anomaly(deg)": 1.2402122909236604,
        "RAAN(deg)": -0.0008400982794853322,
        "Satellite Name": "Test1 0",
        "Satellite Number": 0,
        "Semi-Major Axis(m)": 6980739.136638005,
        "Time(s)": 20
    },
    {
        "Altitude(m)": 604771.5966131657,
        "Argument of Periapsis(deg)": 0.00031256837739889213,
        "Eccentricity": 0.0,
        "Inclination(deg)": 60.0,
        "Latitude(deg)": 1.5285094565976374,
        "Longitude(deg)": -99.21789420831152,
        "Mean Anomaly(deg)": 1.8603184363854908,
        "RAAN(deg)": -0.0012601474192279983,
        "Satellite Name": "Test1 0",
        "Satellite Number": 0,
        "Semi-Major Axis(m)": 6980739.136638005,
        "Time(s)": 30
    },
    {
        "Altitude(m)": 604712.2373549626,
        "Argument of Periapsis(deg)": 0.0004167578365318562,
        "Eccentricity": 0.0,
        "Inclination(deg)": 60.0,
        "Latitude(deg)": 2.0688743113322867,
        "Longitude(deg)": -98.94945305420565,
        "Mean Anomaly(deg)": 2.4804245818473207,
        "RAAN(deg)": -0.0016801965589706644,
        "Satellite Name": "Test1 0",
        "Satellite Number": 0,
        "Semi-Major Axis(m)": 6980739.136638005,
        "Time(s)": 40
    },
    {
        "Altitude(m)": 604656.1207120825,
        "Argument of Periapsis(deg)": 0.0005209472956648203,
        "Eccentricity": 0.0,
        "Inclination(deg)": 60.0,
        "Latitude(deg)": 2.6091846096647076,
        "Longitude(deg)": -98.68079659889122,
        "Mean Anomaly(deg)": 3.1005307273091516,
        "RAAN(deg)": -0.0021002456987133304,
        "Satellite Name": "Test1 0",
        "Satellite Number": 0,
        "Semi-Major Axis(m)": 6980739.136638005,
        "Time(s)": 50
    },
    {
        "Altitude(m)": 604603.248476184,
        "Argument of Periapsis(deg)": 0.0006251367547977843,
        "Eccentricity": 0.0,
        "Inclination(deg)": 60.0,
        "Latitude(deg)": 3.149423171402214,
        "Longitude(deg)": -98.41187016411811,
        "Mean Anomaly(deg)": 3.7206368727709815,
        "RAAN(deg)": -0.0025202948384559967,
        "Satellite Name": "Test1 0",
        "Satellite Number": 0,
        "Semi-Major Axis(m)": 6980739.136638005,
        "Time(s)": 60
    },
    {
        "Altitude(m)": 604553.6209126312,
        "Argument of Periapsis(deg)": 0.0007293262139307483,
        "Eccentricity": 0.0,
        "Inclination(deg)": 60.0,
        "Latitude(deg)": 3.689572765025138,
        "Longitude(deg)": -98.14261840675252,
        "Mean Anomaly(deg)": 4.340743018232812,
        "RAAN(deg)": -0.0029403439781986625,
        "Satellite Name": "Test1 0",
        "Satellite Number": 0,
        "Semi-Major Axis(m)": 6980739.136638005,
        "Time(s)": 70
    },
    {
        "Altitude(m)": 604507.2367631899,
        "Argument of Periapsis(deg)": 0.0008335156730637124,
        "Eccentricity": 0.0,
        "Inclination(deg)": 60.0,
        "Latitude(deg)": 4.2296160976164074,
        "Longitude(deg)": -97.87298629498784,
        "Mean Anomaly(deg)": 4.9608491636946415,
        "RAAN(deg)": -0.0033603931179413287,
        "Satellite Name": "Test1 0",
        "Satellite Number": 0,
        "Semi-Major Axis(m)": 6980739.136638005,
        "Time(s)": 80
    },
    {
        "Altitude(m)": 604464.0932494821,
        "Argument of Periapsis(deg)": 0.0009377051321966765,
        "Eccentricity": 0.0,
        "Inclination(deg)": 60.0,
        "Latitude(deg)": 4.769535804710041,
        "Longitude(deg)": -97.60291857150706,
        "Mean Anomaly(deg)": 5.580955309156472,
        "RAAN(deg)": -0.003780442257683994,
        "Satellite Name": "Test1 0",
        "Satellite Number": 0,
        "Semi-Major Axis(m)": 6980739.136638005,
        "Time(s)": 90
    },
    {
        "Altitude(m)": 604424.1860771829,
        "Argument of Periapsis(deg)": 0.0010418945913296407,
        "Eccentricity": 0.0,
        "Inclination(deg)": 60.0,
        "Latitude(deg)": 5.309314440045611,
        "Longitude(deg)": -97.33235921643947,
        "Mean Anomaly(deg)": 6.201061454618303,
        "RAAN(deg)": -0.004200491397426661,
        "Satellite Name": "Test1 0",
        "Satellite Number": 0,
        "Semi-Major Axis(m)": 6980739.136638005,
        "Time(s)": 100
    },
    {
        "Altitude(m)": 604387.5094409691,
        "Argument of Periapsis(deg)": 0.0011460840504626045,
        "Eccentricity": 0.0,
        "Inclination(deg)": 60.0,
        "Latitude(deg)": 5.8489344652154225,
        "Longitude(deg)": -97.06125242295747,
        "Mean Anomaly(deg)": 6.821167600080132,
        "RAAN(deg)": -0.004620540537169327,
        "Satellite Name": "Test1 0",
        "Satellite Number": 0,
        "Semi-Major Axis(m)": 6980739.136638005,
        "Time(s)": 110
    },
    {
        "Altitude(m)": 604354.0560302073,
        "Argument of Periapsis(deg)": 0.0012502735095955685,
        "Eccentricity": 0.0,
        "Inclination(deg)": 60.0,
        "Latitude(deg)": 6.388378239188962,
        "Longitude(deg)": -96.78954205973632,
        "Mean Anomaly(deg)": 7.441273745541963,
        "RAAN(deg)": -0.005040589676911993,
        "Satellite Name": "Test1 0",
        "Satellite Number": 0,
        "Semi-Major Axis(m)": 6980739.136638005,
        "Time(s)": 120
    },
    {
        "Altitude(m)": 604323.8170353797,
        "Argument of Periapsis(deg)": 0.0013544629687285324,
        "Eccentricity": 0.0,
        "Inclination(deg)": 60.0,
        "Latitude(deg)": 6.927628007701117,
        "Longitude(deg)": -96.51717113312208,
        "Mean Anomaly(deg)": 8.061379891003792,
        "RAAN(deg)": -0.005460638816654658,
        "Satellite Name": "Test1 0",
        "Satellite Number": 0,
        "Semi-Major Axis(m)": 6980739.136638005,
        "Time(s)": 130
    },
    {
        "Altitude(m)": 604296.7821552396,
        "Argument of Periapsis(deg)": 0.0014586524278614966,
        "Eccentricity": 0.0,
        "Inclination(deg)": 60.0,
        "Latitude(deg)": 7.466665892490309,
        "Longitude(deg)": -96.24408276185049,
        "Mean Anomaly(deg)": 8.681486036465625,
        "RAAN(deg)": -0.005880687956397325,
        "Satellite Name": "Test1 0",
        "Satellite Number": 0,
        "Semi-Major Axis(m)": 6980739.136638005,
        "Time(s)": 140
    },
    {
        "Altitude(m)": 604272.9396047111,
        "Argument of Periapsis(deg)": 0.0015628418869944607,
        "Eccentricity": 0.0,
        "Inclination(deg)": 60.0,
        "Latitude(deg)": 8.00547388037052,
        "Longitude(deg)": -95.97021963854205,
        "Mean Anomaly(deg)": 9.301592181927454,
        "RAAN(deg)": -0.006300737096139991,
        "Satellite Name": "Test1 0",
        "Satellite Number": 0,
        "Semi-Major Axis(m)": 6980739.136638005,
        "Time(s)": 150
    },
    {
        "Altitude(m)": 604252.2761235064,
        "Argument of Periapsis(deg)": 0.0016670313461274247,
        "Eccentricity": 0.0,
        "Inclination(deg)": 60.0,
        "Latitude(deg)": 8.544033812122956,
        "Longitude(deg)": -95.69552349081607,
        "Mean Anomaly(deg)": 9.921698327389283,
        "RAAN(deg)": -0.0067207862358826575,
        "Satellite Name": "Test1 0",
        "Satellite Number": 0,
        "Semi-Major Axis(m)": 6980739.136638005,
        "Time(s)": 160
    },
    {
        "Altitude(m)": 604234.7769854632,
        "Argument of Periapsis(deg)": 0.0017712208052603888,
        "Eccentricity": 0.0,
        "Inclination(deg)": 60.0,
        "Latitude(deg)": 9.082327371192687,
        "Longitude(deg)": -95.41993605486778,
        "Mean Anomaly(deg)": 10.541804472851116,
        "RAAN(deg)": -0.007140835375625323,
        "Satellite Name": "Test1 0",
        "Satellite Number": 0,
        "Semi-Major Axis(m)": 6980739.136638005,
        "Time(s)": 170
    },
    {
        "Altitude(m)": 604220.4260086003,
        "Argument of Periapsis(deg)": 0.001875410264393353,
        "Eccentricity": 0.0,
        "Inclination(deg)": 60.0,
        "Latitude(deg)": 9.620336072173481,
        "Longitude(deg)": -95.1433985357327,
        "Mean Anomaly(deg)": 11.161910618312945,
        "RAAN(deg)": -0.007560884515367988,
        "Satellite Name": "Test1 0",
        "Satellite Number": 0,
        "Semi-Major Axis(m)": 6980739.136638005,
        "Time(s)": 180
    },
    {
        "Altitude(m)": 604209.2055658732,
        "Argument of Periapsis(deg)": 0.0019795997235263173,
        "Eccentricity": 0.0,
        "Inclination(deg)": 60.0,
        "Latitude(deg)": 10.158041249065604,
        "Longitude(deg)": -94.86585106708105,
        "Mean Anomaly(deg)": 11.782016763774774,
        "RAAN(deg)": -0.007980933655110656,
        "Satellite Name": "Test1 0",
        "Satellite Number": 0,
        "Semi-Major Axis(m)": 6980739.136638005,
        "Time(s)": 190
    }
]